IRIDIUM 159             
1 43578U 18061K   23229.26003017  .00000359  00000+0  12115-3 0  9999
2 43578  86.3988 129.2753 0002113  83.8523 276.2914 14.34219630265047
IRIDIUM 180             
1 43922U 19002A   23229.81767684  .00000089  00000+0  24588-4 0  9994
2 43922  86.3922  65.8862 0002033  84.4930 275.6498 14.34218930240779
IRIDIUM 176             
1 43923U 19002B   23229.07878710  .00000267  00000+0  38489-4 0  9999
2 43923  86.6052  66.2319 0002385  88.0243 272.1248 14.72251381246956
IRIDIUM 168             
1 43924U 19002C   23229.46249327  .00000102  00000+0  29530-4 0  9994
2 43924  86.3923  66.0830 0002077  86.4818 273.6616 14.34214692240664
IRIDIUM 173             
1 43925U 19002D   23229.79864114  .00000103  00000+0  29801-4 0  9990
2 43925  86.3922  65.8736 0002018  88.5703 271.5724 14.34218335240707
IRIDIUM 169             
1 43926U 19002E   23230.16668922  .00000376  00000+0  11653-3 0  9990
2 43926  86.4190  97.3573 0004676 125.8417 234.3216 14.38608799241563
IRIDIUM 172             
1 43927U 19002F   23229.65276225  .00000108  00000+0  31329-4 0  9990
2 43927  86.3922  65.9394 0002062  86.8588 273.2844 14.34217775240687
IRIDIUM 175             
1 43928U 19002G   23229.54833649  .00000448  00000+0  67069-4 0  9995
2 43928  86.1476  56.3887 0002212  87.2759 272.8710 14.72253617247011
